NORAD_CAT_ID,EPOCH,MEAN_MOTION,ECCENTRICITY,INCLINATION,RA_OF_ASC_NODE,ARG_OF_PERICENTER,MEAN_ANOMALY,APOAPSIS,PERIAPSIS,BSTAR,COUNTRY_CODE,RCS_SIZE,NAME,LINE1,LINE2
19005,2025-08-08T19:14:57.158016,12.43290603,0.0031747,73.8741,3.0486,249.42,180.5023,1517.674,1467.699,0.00077356,CIS,SMALL,0 COSMOS 1823 DEB,1 19005U 87020BA  25220.80205044  .00000091  00000-0  77356-3 0  9997,2 19005  73.8741   3.0486 0031747 249.4200 180.5023 12.43290603706687
19008,2025-08-04T04:15:41.349024,11.20949023,0.1792645,28.7354,172.001,195.6936,158.0022,3567.27,543.592,0.00016208,US,SMALL,0 DELTA 1 DEB,1 19008U 84088G   25216.17756191  .00000355  00000-0  16208-3 0  9992,2 19008  28.7354 172.0010 1792645 195.6936 158.0022 11.20949023533823
19024,2025-08-09T05:31:33.270816,13.26345736,0.0503523,66.2751,69.9067,189.8254,289.1943,1540.172,780.989,0.00077949,CIS,SMALL,0 COSMOS 397 DEB *,1 19024U 71015DN  25221.23024619  .00000617  00000-0  77949-3 0  9992,2 19024  66.2751  69.9067 0503523 189.8254 289.1943 13.26345736804331
19025,2025-08-08T21:49:42.134880,14.28034952,0.0023992,82.7067,19.4105,27.0892,333.1539,815.526,781.091,0.0015911,CIS,SMALL,0 COSMOS 1275 DEB,1 19025U 81053MC  25220.90951545  .00003977  00000-0  15911-2 0  9998,2 19025  82.7067  19.4105 0023992  27.0892 333.1539 14.28034952 58628
19026,2025-08-09T09:03:11.062368,13.78143016,0.0113411,83.1677,6.1531,256.3839,131.4662,1053.824,887.141,0.0012015,CIS,SMALL,0 COSMOS 1275 DEB,1 19026U 81053MD  25221.37721137  .00001282  00000-0  12015-2 0  9992,2 19026  83.1677   6.1531 0113411 256.3839 131.4662 13.78143016  8763
19027,2025-08-05T23:29:47.321088,14.15688291,0.0068332,83.0002,116.4465,16.075,356.4387,889.296,790.651,0.0016193,CIS,SMALL,0 COSMOS 1275 DEB,1 19027U 81053ME  25217.97901992  .00003262  00000-0  16193-2 0  9994,2 19027  83.0002 116.4465 0068332  16.0750 356.4387 14.15688291 37249
19030,2025-08-08T02:27:31.792320,8.64506246,0.0035191,87.3446,260.6818,10.4671,349.6909,3685.357,3614.777,0.012249,US,MEDIUM,0 WESTFORD NEEDLES,1 19030U 63014DY  25220.10245130  .00000029  00000-0  12249-1 0  9994,2 19030  87.3446 260.6818 0035191  10.4671 349.6909  8.64506246361906
19033,2025-08-07T11:43:10.365024,12.53388951,0.0041487,101.9414,221.1587,14.0536,139.0936,1482.832,1417.876,0.0023578,US,SMALL,0 DELTA 1 DEB,1 19033U 73086HC  25219.48831441  .00000330  00000-0  23578-2 0  9995,2 19033 101.9414 221.1587 0041487  14.0536 139.0936 12.53388951844470
19047,2025-08-09T07:47:52.391616,14.20784242,0.0030172,82.784,174.2448,115.7794,35.9788,844.43,800.977,0.0012815,CIS,SMALL,0 COSMOS 1275 DEB,1 19047U 81053MF  25221.32491194  .00002794  00000-0  12815-2 0  9994,2 19047  82.7840 174.2448 0030172 115.7794  35.9788 14.20784242 60414
19048,2025-08-08T18:08:46.215744,14.73415665,0.0009015,74.021,328.0741,97.2186,54.6206,656.523,643.851,0.00043347,CIS,SMALL,0 SL-8 DEB,1 19048U 88029C   25220.75609046  .00002781  00000-0  43347-3 0  9999,2 19048  74.0210 328.0741 0009015  97.2186  54.6206 14.73415665977559
19051,2025-07-22T22:18:13.692960,8.6680725,0.02320284,87.375,183.335,283.9838,73.532,3864.583,3400.041,-0.022066123,US,MEDIUM,0 WESTFORD NEEDLES,1 19051U 63014EA  25203.92932515 -.00000047  00000-0 -22066-1 0  9998,2 19051  87.3750 183.3350 0232028 283.9838  73.5320  8.66807250414819
19059,2025-08-07T22:57:13.188096,8.6647744,0.0034256,87.3367,217.0823,0.9649,359.1268,3669.153,3600.552,0.01099,US,MEDIUM,0 WESTFORD NEEDLES,1 19059U 63014EG  25219.95640264  .00000027  00000-0  10990-1 0  9992,2 19059  87.3367 217.0823 0034256   0.9649 359.1268  8.66477440186703
19077,2025-08-08T07:22:11.247168,13.4876772,0.017627,90.2912,343.2184,103.6681,287.9495,1208.206,945.39,0.00085955,US,SMALL,0 SCOUT G-1 DEB,1 19077U 88033D   25220.30707462  .00000600  00000-0  85955-3 0  9997,2 19077  90.2912 343.2184 0176270 103.6681 287.9495 13.48767720822092
19078,2025-08-08T19:37:33.039264,13.40781124,0.0162992,90.5593,340.0601,84.2952,41.43,1228.364,984.381,0.00013704,US,SMALL,0 SCOUT G-1 DEB,1 19078U 88033E   25220.81774351  .00000091  00000-0  13704-3 0  9992,2 19078  90.5593 340.0601 0162992  84.2952  41.4300 13.40781124821892
19102,2025-08-09T10:23:02.080608,14.63348594,0.0011212,74.042,240.9011,267.8116,161.3182,690.301,674.468,0.00033854,CIS,SMALL,0 SL-8 DEB *,1 19102U 82051G   25221.43266297  .00001720  00000-0  33854-3 0  9996,2 19102  74.0420 240.9011 0011212 267.8116 161.3182 14.63348594969921
19105,2025-08-08T16:55:12.608256,14.57244166,0.0062114,98.7387,132.2508,44.8224,346.23,746.066,658.11,0.0001315,US,SMALL,0 DELTA 1 DEB,1 19105U 75004HN  25220.70500704  .00000556  00000-0  13150-3 0  9995,2 19105  98.7387 132.2508 0062114  44.8224 346.2300 14.57244166137570
19109,2025-08-07T01:52:45.431040,8.70278189,0.1014442,87.0974,103.6553,82.7067,288.7788,4618.478,2592.878,0.6832213,US,MEDIUM,0 WESTFORD NEEDLES,1 19109U 63014EJ  25219.07830360  .00002580  00000-0  68322+0 0  9995,2 19109  87.0974 103.6553 1014442  82.7067 288.7788  8.70278189431057
19111,2025-08-09T06:35:48.355872,12.70084817,0.0010782,82.6041,46.2509,50.304,135.4588,1389.963,1373.23,0.0011148,CIS,SMALL,0 COSMOS 1691 DEB,1 19111U 85094W   25221.27486523  .00000232  00000-0  11148-2 0  9992,2 19111  82.6041  46.2509 0010782  50.3040 135.4588 12.70084817736381
19112,2025-08-08T17:34:32.819520,13.22131952,0.0919959,65.8258,17.3019,232.3795,119.0268,1871.593,481.586,0.00037939,CIS,SMALL,0 COSMOS 886 DEB,1 19112U 76126BZ  25220.73232430  .00001636  00000-0  37939-3 0  9991,2 19112  65.8258  17.3019 0919959 232.3795 119.0268 13.22131952518723
19113,2025-08-08T21:06:53.462016,13.05847267,0.0034473,90.2503,6.7802,175.42,337.9121,1265.527,1213.008,0.0031716,US,SMALL,0 OPS 4682 DEB,1 19113U 65027AQ  25220.87978544  .00001048  00000-0  31716-2 0  9991,2 19113  90.2503   6.7802 0034473 175.4200 337.9121 13.05847267594196
19125,2025-08-08T18:15:56.903328,13.79593464,0.0177297,71.0297,242.7471,27.2239,333.8023,1095.528,835.134,0.00010124,CIS,SMALL,0 SL-16 DEB,1 19125U 88039C   25220.76107527  .00000075  00000-0  10124-3 0  9995,2 19125  71.0297 242.7471 0177297  27.2239 333.8023 13.79593464873080
19126,2025-08-08T17:30:20.147040,13.77849376,0.0181828,71.0339,321.975,45.4749,69.1502,1105.164,837.889,0.00011922,CIS,SMALL,0 SL-16 DEB,1 19126U 88039D   25220.72939985  .00000093  00000-0  11922-3 0  9990,2 19126  71.0339 321.9750 0181828  45.4749  69.1502 13.77849376870803
19127,2025-08-08T22:13:38.776800,13.7270071,0.0210117,70.9894,130.3299,311.5644,123.9356,1144.708,835.078,8.7615e-05,CIS,SMALL,0 SL-16 DEB,1 19127U 88039E   25220.92614325  .00000050  00000-0  87615-4 0  9997,2 19127  70.9894 130.3299 0210117 311.5644 123.9356 13.72700710863860
19128,2025-08-08T22:40:47.624160,13.72793488,0.0204162,70.9828,111.3627,337.9024,122.4482,1139.981,839.141,0.00010752,CIS,SMALL,0 SL-16 DEB,1 19128U 88039F   25220.94499565  .00000071  00000-0  10752-3 0  9997,2 19128  70.9828 111.3627 0204162 337.9024 122.4482 13.72793488864228
19133,2025-08-08T21:11:42.217728,12.68262432,0.0121085,82.3129,144.3543,56.135,18.6047,1483.077,1294.979,0.01891,CIS,MEDIUM,0 SL-14 DEB,1 19133U 78100F   25220.88312752  .00003784  00000-0  18910-1 0  9992,2 19133  82.3129 144.3543 0121085  56.1350  18.6047 12.68262432 97092
19134,2025-08-09T11:47:25.233792,12.89181914,0.0161896,82.299,298.1344,117.5267,255.5763,1429.158,1180.391,0.014692,CIS,MEDIUM,0 SL-14 DEB,1 19134U 78100G   25221.49126428  .00004033  00000-0  14692-1 0  9995,2 19134  82.2990 298.1344 0161896 117.5267 255.5763 12.89181914112271
19136,2025-08-08T21:13:49.438272,12.94596495,0.0401122,82.4175,26.2741,133.3225,352.8498,1590.656,976.019,0.001989,CIS,SMALL,0 SL-14 DEB,1 19136U 78100J   25220.88459998  .00000813  00000-0  19890-2 0  9998,2 19136  82.4175  26.2741 0401122 133.3225 352.8498 12.94596495168064
19137,2025-08-09T01:54:10.656864,12.74942544,0.0079234,82.3057,76.8567,340.3488,174.0492,1423.201,1300.546,0.02201,CIS,MEDIUM,0 SL-14 DEB,1 19137U 78100K   25221.07929001  .00004741  00000-0  22010-1 0  9999,2 19137  82.3057  76.8567 0079234 340.3488 174.0492 12.74942544 96398
19138,2025-08-08T22:24:00.423072,12.30459388,0.0169142,82.305,204.0434,99.9284,321.5989,1681.362,1413.257,0.00093558,CIS,SMALL,0 SL-14 DEB,1 19138U 78100L   25220.93333823  .00000126  00000-0  93558-3 0  9995,2 19138  82.3050 204.0434 0169142  99.9284 321.5989 12.30459388669396
19139,2025-08-08T03:31:54.255072,11.70416941,0.0145167,82.1401,213.1316,207.3939,266.0144,1935.047,1697.141,0.00029032,CIS,SMALL,0 SL-14 DEB,1 19139U 78100M   25220.14715573  .00000024  00000-0  29032-3 0  9998,2 19139  82.1401 213.1316 0145167 207.3939 266.0144 11.70416941590501
19140,2025-08-09T02:27:56.912256,13.6335812,0.0222837,90.2996,4.1635,2.0449,57.0478,1188.451,858.579,0.0011621,US,SMALL,0 SCOUT G-1 DEB,1 19140U 88033F   25221.10274204  .00001090  00000-0  11621-2 0  9992,2 19140  90.2996   4.1635 0222837   2.0449  57.0478 13.63358120829815
19143,2025-08-09T05:09:04.996224,12.70316304,0.0303065,81.6997,298.6926,40.9939,337.7894,1615.795,1145.512,0.013242,CIS,SMALL,0 SL-14 DEB,1 19143U 78100P   25221.21464116  .00003183  00000-0  13242-1 0  9999,2 19143  81.6997 298.6926 0303065  40.9939 337.7894 12.70316304718377
19144,2025-08-08T19:09:49.372704,11.89663788,0.0050349,82.6146,45.1866,350.6772,27.9899,1768.285,1686.664,0.00067879,CIS,MEDIUM,0 SL-14 DEB,1 19144U 78100Q   25220.79848811  .00000057  00000-0  67879-3 0  9994,2 19144  82.6146  45.1866 0050349 350.6772  27.9899 11.89663788616227
19150,2025-08-07T22:06:34.769664,14.18027665,0.0024046,100.3423,110.6084,302.0166,57.8668,849.37,814.695,0.0030564,US,SMALL,0 THORAD AGENA D DEB,1 19150U 70025PS  25219.92123576  .00006229  00000-0  30564-2 0  9993,2 19150 100.3423 110.6084 0024046 302.0166  57.8668 14.18027665863316
19162,2025-08-08T19:14:00.208320,13.83926712,0.0037529,65.0458,324.7879,290.8007,152.6464,977.496,922.492,1.068e-05,CIS,MEDIUM,0 COSMOS 1932 FUEL CORE,1 19162U 88019D   25220.80139130 -.00000076  00000-0  10680-4 0  9994,2 19162  65.0458 324.7879 0037529 290.8007 152.6464 13.83926712880872
